STARLINK-3318           
1 50837U 22001AL  26068.59968899 -.00000552  00000+0 -16592-4 0  9993
2 50837  53.2175 169.5248 0001495  90.9297 269.1866 15.08837396230393
LEMUR-2-AHMED-ASRAR     
1 60576U 24149DN  26068.73265438  .00013045  00000+0  79773-3 0  9992
2 60576  97.7021 152.9847 0001633  18.5035 341.6253 15.10376432 85541
